[{"OBJECT_NAME":"WNISAT 1R","OBJECT_ID":"2017-042L","EPOCH":"2026-03-09T20:41:10.613760","MEAN_MOTION":15.01153186,"ECCENTRICITY":0.00133015,"INCLINATION":97.4515,"RA_OF_ASC_NODE":228.7079,"ARG_OF_PERICENTER":131.3338,"MEAN_ANOMALY":228.9034,"EPHEMERIS_TYPE":0,"CLASSIFICATION_TYPE":"U","NORAD_CAT_ID":42835,"ELEMENT_SET_NO":999,"REV_AT_EPOCH":47160,"BSTAR":0.00037839839,"MEAN_MOTION_DOT":4.802e-5,"MEAN_MOTION_DDOT":0},{"OBJECT_NAME":"STARLINK-6048","OBJECT_ID":"2023-064M","EPOCH":"2026-03-09T10:50:18.571776","MEAN_MOTION":14.98327677,"ECCENTRICITY":0.00031903,"INCLINATION":70.0002,"RA_OF_ASC_NODE":144.9282,"ARG_OF_PERICENTER":269.7038,"MEAN_ANOMALY":90.3755,"EPHEMERIS_TYPE":0,"CLASSIFICATION_TYPE":"U","NORAD_CAT_ID":56459,"ELEMENT_SET_NO":999,"REV_AT_EPOCH":15520,"BSTAR":0.00033822676,"MEAN_MOTION_DOT":3.945e-5,"MEAN_MOTION_DDOT":0}]
